GPS BIIA-23 (PRN 18)    
1 22877U 93068A   18349.61103022 -.00000050  00000-0  00000+0 0  9997
2 22877  54.5534  76.0656 0147438  78.1448 281.7075  2.00570732184181
GPS BIIR-2  (PRN 13)    
1 24876U 97035A   18349.50912728  .00000071  00000-0  00000+0 0  9997
2 24876  55.4699 205.6593 0034653  79.5614 280.9063  2.00564363156784
GPS BIIR-3  (PRN 11)    
1 25933U 99055A   18349.61167367 -.00000074  00000-0  00000+0 0  9993
2 25933  52.0098  53.7972 0164904 106.1801 255.5291  2.00563035140606
GPS BIIR-4  (PRN 20)    
1 26360U 00025A   18349.58776640  .00000060  00000-0  00000+0 0  9997
2 26360  53.2635 132.0984 0043013 127.9960 262.5727  2.00563256136296
GPS BIIR-5  (PRN 28)    
1 26407U 00040A   18349.61221948 -.00000043  00000-0  00000+0 0  9998
2 26407  56.3784 323.7920 0198037 274.5949 109.7735  2.00561472134971
GPS BIIR-6  (PRN 14)    
1 26605U 00071A   18349.63715292  .00000076  00000-0  00000+0 0  9999
2 26605  55.0437 203.1744 0102067 248.8873  63.2628  2.00565728132572
GPS BIIR-8  (PRN 16)    
1 27663U 03005A   18349.17170052 -.00000043  00000-0  00000+0 0  9997
2 27663  56.4409 323.5756 0101708  28.6678 156.7148  2.00555934116327
GPS BIIR-9  (PRN 21)    
1 27704U 03010A   18349.35405522 -.00000051  00000-0  00000+0 0  9991
2 27704  54.2262  75.6047 0248299 273.8341   8.5991  2.00575492115131
GPS BIIR-10 (PRN 22)    
1 28129U 03058A   18349.20591929  .00000063  00000-0  00000+0 0  9998
2 28129  53.0759 134.9344 0072328 276.7032  82.4608  2.00567892109827
GPS BIIR-11 (PRN 19)    
1 28190U 04009A   18348.90688757 -.00000071  00000-0  00000+0 0  9995
2 28190  56.2289  24.3873 0091649  75.4418  68.8811  2.00571313107999
GPS BIIR-12 (PRN 23)    
1 28361U 04023A   18349.46124745  .00000080  00000-0  00000+0 0  9994
2 28361  54.0514 197.7374 0127987 228.0429 229.6762  2.00562751106098
GPS BIIR-13 (PRN 02)    
1 28474U 04045A   18349.29377392 -.00000051  00000-0  00000+0 0  9991
2 28474  54.5893  75.2903 0188137 256.8465  83.5380  2.00570662103459
GPS BIIRM-1 (PRN 17)    
1 28874U 05038A   18349.19450853 -.00000067  00000-0  00000+0 0  9998
2 28874  56.3615  21.7074 0131741 259.9734 117.4307  2.00565892 96852
GPS BIIRM-2 (PRN 31)    
1 29486U 06042A   18349.63539726 -.00000021  00000-0  00000+0 0  9990
2 29486  55.0846 260.3983 0091333 355.3350 256.9276  2.00548917 89575
GPS BIIRM-3 (PRN 12)    
1 29601U 06052A   18349.22590662 -.00000043  00000-0  00000+0 0  9995
2 29601  56.4187 322.4902 0069640  57.4300 303.2464  2.00557470 88487
GPS BIIRM-4 (PRN 15)    
1 32260U 07047A   18349.04409512  .00000078  00000-0  00000+0 0  9995
2 32260  53.1753 193.6120 0109679  41.8285 319.0699  2.00570653 81858
GPS BIIRM-5 (PRN 29)    
1 32384U 07062A   18349.34925292 -.00000067  00000-0  00000+0 0  9999
2 32384  56.4407  22.3252 0003851  92.6145 264.8952  2.00574028 80594
GPS BIIRM-6 (PRN 07)    
1 32711U 08012A   18348.95148873 -.00000022  00000-0  00000+0 0  9998
2 32711  54.8215 259.6596 0122533 218.7605 140.4049  2.00569004 78775
GPS BIIRM-8 (PRN 05)    
1 35752U 09043A   18349.42474281  .00000071  00000-0  00000+0 0  9992
2 35752  54.3698 137.3571 0054345  39.7298 327.6516  2.00572800 68373
GPS BIIF-1  (PRN 25)    
1 36585U 10022A   18349.26262599 -.00000045  00000-0  00000+0 0  9997
2 36585  55.7035 318.9208 0075659  47.0034 313.6215  2.00577410 62617
GPS BIIF-2  (PRN 01)    
1 37753U 11036A   18349.55678688 -.00000045  00000-0  00000+0 0  9993
2 37753  55.7870  79.0231 0080568  38.5501 255.7322  2.00565164 54307
GPS BIIF-3  (PRN 24)    
1 38833U 12053A   18348.63250154 -.00000020  00000-0  00000+0 0  9998
2 38833  53.8542 256.0533 0077525  30.9531 329.5556  2.00555681 45359
GPS BIIF-4  (PRN 27)    
1 39166U 13023A   18348.99647078 -.00000068  00000-0  00000+0 0  9992
2 39166  56.0516  18.5521 0061978  22.4338 337.8907  2.00560823 40899
GPS BIIF-5  (PRN 30)    
1 39533U 14008A   18348.99416798 -.00000025  00000-0  00000+0 0  9990
2 39533  53.9921 261.4121 0036109 191.8983 168.0636  2.00565872 35260
GPS BIIF-6  (PRN 06)    
1 39741U 14026A   18349.27505660 -.00000045  00000-0  00000+0 0  9992
2 39741  55.7685  78.5588 0014355 286.7844  73.0768  2.00553997 33546
GPS BIIF-7  (PRN 09)    
1 40105U 14045A   18349.36201097  .00000079  00000-0  00000+0 0  9992
2 40105  54.5777 197.9445 0012182  97.4955 262.7132  2.00551992 31997
GPS BIIF-8  (PRN 03)    
1 40294U 14068A   18349.23629200  .00000074  00000-0  00000+0 0  9997
2 40294  55.1215 138.7737 0017327  34.6043 325.4979  2.00569706 30216
GPS BIIF-9  (PRN 26)    
1 40534U 15013A   18348.87721949 -.00000047  00000-0  00000+0 0  9998
2 40534  54.6378 317.4703 0033640 359.5403   0.4598  2.00552864 27277
GPS BIIF-10  (PRN 08)   
1 40730U 15033A   18348.53338366 -.00000071  00000-0  00000+0 0  9995
2 40730  55.5791  17.9942 0040481 333.6818  26.1658  2.00564758 25023
GPS BIIF-11  (PRN 10)   
1 41019U 15062A   18349.08473494  .00000073  00000-0  00000+0 0  9992
2 41019  55.1246 138.5890 0041888 202.0698 157.7395  2.00564650 22852
GPS BIIF-12  (PRN 32)   
1 41328U 16007A   18349.17641086  .00000077  00000-0  00000+0 0  9993
2 41328  54.8248 198.2918 0024920 214.0074 145.9028  2.00556324 20912
